[{"CCSDS_OMM_VERS":"3.0","COMMENT":"GENERATED VIA SPACE-TRACK.ORG API","CREATION_DATE":"2026-01-19T02:30:55","ORIGINATOR":"18 SPCS","OBJECT_NAME":"THOR ABLESTAR DEB","OBJECT_ID":"1961-015AV","CENTER_NAME":"EARTH","REF_FRAME":"TEME","TIME_SYSTEM":"UTC","MEAN_ELEMENT_THEORY":"SGP4","EPOCH":"2026-01-18T21:50:31.067520","MEAN_MOTION":"13.02997491","ECCENTRICITY":"0.03719667","INCLINATION":"65.5237","RA_OF_ASC_NODE":"204.6262","ARG_OF_PERICENTER":"216.7878","MEAN_ANOMALY":"140.7091","EPHEMERIS_TYPE":"0","CLASSIFICATION_TYPE":"U","NORAD_CAT_ID":"159","ELEMENT_SET_NO":"999","REV_AT_EPOCH":"6140","BSTAR":"0.00023366130000","MEAN_MOTION_DOT":"0.00000033","MEAN_MOTION_DDOT":"0.0000000000000","SEMIMAJOR_AXIS":"7628.505","PERIOD":"110.514","APOAPSIS":"1534.125","PERIAPSIS":"966.615","OBJECT_TYPE":"DEBRIS","RCS_SIZE":"MEDIUM","COUNTRY_CODE":"US","LAUNCH_DATE":"1961-06-29","SITE":"AFETR","DECAY_DATE":null,"FILE":"4972920","GP_ID":"309393233","TLE_LINE0":"0 THOR ABLESTAR DEB","TLE_LINE1":"1 00159U 61015AV  26018.91008180  .00000033  00000-0  23366-3 0  9991","TLE_LINE2":"2 00159  65.5237 204.6262 0371967 216.7878 140.7091 13.02997491 61407"},{"CCSDS_OMM_VERS":"3.0","COMMENT":"GENERATED VIA SPACE-TRACK.ORG API","CREATION_DATE":"2026-01-19T02:30:55","ORIGINATOR":"18 SPCS","OBJECT_NAME":"TIROS 3","OBJECT_ID":"1961-017A","CENTER_NAME":"EARTH","REF_FRAME":"TEME","TIME_SYSTEM":"UTC","MEAN_ELEMENT_THEORY":"SGP4","EPOCH":"2026-01-18T20:27:55.380384","MEAN_MOTION":"14.45317461","ECCENTRICITY":"0.00433297","INCLINATION":"47.9007","RA_OF_ASC_NODE":"328.1697","ARG_OF_PERICENTER":"62.3907","MEAN_ANOMALY":"298.1376","EPHEMERIS_TYPE":"0","CLASSIFICATION_TYPE":"U","NORAD_CAT_ID":"162","ELEMENT_SET_NO":"999","REV_AT_EPOCH":"37017","BSTAR":"0.00006330472900","MEAN_MOTION_DOT":"0.00000061","MEAN_MOTION_DDOT":"0.0000000000000","SEMIMAJOR_AXIS":"7119.120","PERIOD":"99.632","APOAPSIS":"771.832","PERIAPSIS":"710.139","OBJECT_TYPE":"PAYLOAD","RCS_SIZE":"MEDIUM","COUNTRY_CODE":"US","LAUNCH_DATE":"1961-07-12","SITE":"AFETR","DECAY_DATE":null,"FILE":"4972920","GP_ID":"309393734","TLE_LINE0":"0 TIROS 3","TLE_LINE1":"1 00162U 61017A   26018.85272431  .00000061  00000-0  63305-4 0  9991","TLE_LINE2":"2 00162  47.9007 328.1697 0043330  62.3907 298.1376 14.45317461370174"}]